{"type": "FeatureCollection", "features": [ {"type": "Feature", "properties": {"norad_id": 31243, "name": "FENGYUN 1C DEB", "group": "fengyun-1c-debris", "lat": 38.122805336399885, "lon": 10.532595092113404, "alt_km": 910.1379613644749, "timestamp": "2025-12-02T21:34:01.552277+00:00", "meta": {"OBJECT_NAME": "FENGYUN 1C DEB", "OBJECT_ID": "1999-025BLZ", "EPOCH": "2025-12-02T09:26:08.464128", "MEAN_MOTION": 14.07125765, "ECCENTRICITY": 0.0065805, "INCLINATION": 98.7507, "RA_OF_ASC_NODE": 16.9856, "ARG_OF_PERICENTER": 196.9794, "MEAN_ANOMALY": 162.9174, "EPHEMERIS_TYPE": 0, "CLASSIFICATION_TYPE": "U", "NORAD_CAT_ID": 31243, "ELEMENT_SET_NO": 999, "REV_AT_EPOCH": 69162, "BSTAR": 0.0010847, "MEAN_MOTION_DOT": 1.809e-05, "MEAN_MOTION_DDOT": 0}, "tle": {"line1": "1 31243U 99025BLZ 25336.39315352  .00001809  00000+0  10847-2 0  9997", "line2": "2 31243  98.7507  16.9856 0065805 196.9794 162.9174 14.07125765691627"}}, "geometry": {"type": "Point", "coordinates": [10.532595092113404, 38.122805336399885]}}, {"type": "Feature", "properties": {"norad_id": 31244, "name": "FENGYUN 1C DEB", "group": "fengyun-1c-debris", "lat": 80.35694143211728, "lon": -69.99501958865494, "alt_km": 888.2284749752689, "timestamp": "2025-12-02T21:34:01.552289+00:00", "meta": {"OBJECT_NAME": "FENGYUN 1C DEB", "OBJECT_ID": "1999-025BMA", "EPOCH": "2025-11-29T11:08:59.157312", "MEAN_MOTION": 14.06218558, "ECCENTRICITY": 0.01023846, "INCLINATION": 99.0353, "RA_OF_ASC_NODE": 37.1115, "ARG_OF_PERICENTER": 211.8178, "MEAN_ANOMALY": 147.6779, "EPHEMERIS_TYPE": 0, "CLASSIFICATION_TYPE": "U", "NORAD_CAT_ID": 31244, "ELEMENT_SET_NO": 999, "REV_AT_EPOCH": 57453, "BSTAR": 0.00052742349, "MEAN_MOTION_DOT": 8.65e-06, "MEAN_MOTION_DDOT": 0}, "tle": {"line1": "1 31244U 99025BMA 25333.46457358  .00000865  00000+0  52742-3 0  9998", "line2": "2 31244  99.0353  37.1115 0102384 211.8178 147.6779 14.06218558574534"}}, "geometry": {"type": "Point", "coordinates": [-69.99501958865494, 80.35694143211728]}}, {"type": "Feature", "properties": {"norad_id": 31247, "name": "FENGYUN 1C DEB", "group": "fengyun-1c-debris", "lat": 64.24054943179722, "lon": -155.23976231637124, "alt_km": 831.2055541229993, "timestamp": "2025-12-02T21:34:01.552299+00:00", "meta": {"OBJECT_NAME": "FENGYUN 1C DEB", "OBJECT_ID": "1999-025BMD", "EPOCH": "2025-11-26T21:58:44.154048", "MEAN_MOTION": 14.05045725, "ECCENTRICITY": 0.0058143, "INCLINATION": 99.365, "RA_OF_ASC_NODE": 218.5854, "ARG_OF_PERICENTER": 105.8084, "MEAN_ANOMALY": 314.3757, "EPHEMERIS_TYPE": 0, "CLASSIFICATION_TYPE": "U", "NORAD_CAT_ID": 31247, "ELEMENT_SET_NO": 999, "REV_AT_EPOCH": 95299, "BSTAR": 0.0014532, "MEAN_MOTION_DOT": 2.331e-05, "MEAN_MOTION_DDOT": 0}, "tle": {"line1": "1 31247U 99025BMD 25330.91578882  .00002331  00000+0  14532-2 0  9998", "line2": "2 31247  99.3650 218.5854 0058143 105.8084 314.3757 14.05045725952998"}}, "geometry": {"type": "Point", "coordinates": [-155.23976231637124, 64.24054943179722]}}, {"type": "Feature", "properties": {"norad_id": 31248, "name": "FENGYUN 1C DEB", "group": "fengyun-1c-debris", "lat": -3.9162369046244523, "lon": 34.9928430180817, "alt_km": 846.0137034760546, "timestamp": "2025-12-02T21:34:01.552312+00:00", "meta": {"OBJECT_NAME": "FENGYUN 1C DEB", "OBJECT_ID": "1999-025BME", "EPOCH": "2025-12-02T02:45:39.580416", "MEAN_MOTION": 13.92758198, "ECCENTRICITY": 0.0109757, "INCLINATION": 99.2654, "RA_OF_ASC_NODE": 33.5687, "ARG_OF_PERICENTER": 340.39, "MEAN_ANOMALY": 48.6423, "EPHEMERIS_TYPE": 0, "CLASSIFICATION_TYPE": "U", "NORAD_CAT_ID": 31248, "ELEMENT_SET_NO": 999, "REV_AT_EPOCH": 94676, "BSTAR": 0.00064820906, "MEAN_MOTION_DOT": 8.36e-06, "MEAN_MOTION_DDOT": 0}, "tle": {"line1": "1 31248U 99025BME 25336.11504144  .00000836  00000+0  64821-3 0  9992", "line2": "2 31248  99.2654  33.5687 0109757 340.3900  48.6423 13.92758198946767"}}, "geometry": {"type": "Point", "coordinates": [34.9928430180817, -3.9162369046244523]}}, {"type": "Feature", "properties": {"norad_id": 31250, "name": "FENGYUN 1C DEB", "group": "fengyun-1c-debris", "lat": -2.196988634504065, "lon": 7.365896220060442, "alt_km": 964.2863698446326, "timestamp": "2025-12-02T21:34:01.552322+00:00", "meta": {"OBJECT_NAME": "FENGYUN 1C DEB", "OBJECT_ID": "1999-025BMG", "EPOCH": "2025-11-27T20:53:06.321984", "MEAN_MOTION": 14.02996088, "ECCENTRICITY": 0.01342537, "INCLINATION": 98.3888, "RA_OF_ASC_NODE": 183.0534, "ARG_OF_PERICENTER": 339.6638, "MEAN_ANOMALY": 19.9213, "EPHEMERIS_TYPE": 0, "CLASSIFICATION_TYPE": "U", "NORAD_CAT_ID": 31250, "ELEMENT_SET_NO": 999, "REV_AT_EPOCH": 95309, "BSTAR": 0.0013427936, "MEAN_MOTION_DOT": 2.218e-05, "MEAN_MOTION_DDOT": 0}, "tle": {"line1": "1 31250U 99025BMG 25331.87021206  .00002218  00000+0  13428-2 0  9998", "line2": "2 31250  98.3888 183.0534 0134253 339.6638  19.9213 14.02996088953095"}}, "geometry": {"type": "Point", "coordinates": [7.365896220060442, -2.196988634504065]}}, {"type": "Feature", "properties": {"norad_id": 31252, "name": "FENGYUN 1C DEB", "group": "fengyun-1c-debris", "lat": 8.264790993096886, "lon": -5.202030719506646, "alt_km": 907.7078197184028, "timestamp": "2025-12-02T21:34:01.552332+00:00", "meta": {"OBJECT_NAME": "FENGYUN 1C DEB", "OBJECT_ID": "1999-025BMJ", "EPOCH": "2025-11-29T18:29:15.110592", "MEAN_MOTION": 14.40109832, "ECCENTRICITY": 0.02131515, "INCLINATION": 98.3188, "RA_OF_ASC_NODE": 352.9738, "ARG_OF_PERICENTER": 211.3131, "MEAN_ANOMALY": 147.522, "EPHEMERIS_TYPE": 0, "CLASSIFICATION_TYPE": "U", "NORAD_CAT_ID": 31252, "ELEMENT_SET_NO": 999, "REV_AT_EPOCH": 97020, "BSTAR": 0.0003997596, "MEAN_MOTION_DOT": 1.598e-05, "MEAN_MOTION_DDOT": 0}, "tle": {"line1": "1 31252U 99025BMJ 25333.77031378  .00001598  00000+0  39976-3 0  9999", "line2": "2 31252  98.3188 352.9738 0213151 211.3131 147.5220 14.40109832970205"}}, "geometry": {"type": "Point", "coordinates": [-5.202030719506646, 8.264790993096886]}}, {"type": "Feature", "properties": {"norad_id": 31253, "name": "FENGYUN 1C DEB", "group": "fengyun-1c-debris", "lat": -27.175894646757595, "lon": 46.63247102195166, "alt_km": 1059.128237993954, "timestamp": "2025-12-02T21:34:01.552342+00:00", "meta": {"OBJECT_NAME": "FENGYUN 1C DEB", "OBJECT_ID": "1999-025BMK", "EPOCH": "2025-12-01T21:45:02.370816", "MEAN_MOTION": 14.03572827, "ECCENTRICITY": 0.02905823, "INCLINATION": 99.0775, "RA_OF_ASC_NODE": 40.9326, "ARG_OF_PERICENTER": 120.8798, "MEAN_ANOMALY": 242.1292, "EPHEMERIS_TYPE": 0, "CLASSIFICATION_TYPE": "U", "NORAD_CAT_ID": 31253, "ELEMENT_SET_NO": 999, "REV_AT_EPOCH": 68846, "BSTAR": 0.00057636154, "MEAN_MOTION_DOT": 1.271e-05, "MEAN_MOTION_DDOT": 0}, "tle": {"line1": "1 31253U 99025BMK 25335.90627744  .00001271  00000+0  57636-3 0  9996", "line2": "2 31253  99.0775  40.9326 0290582 120.8798 242.1292 14.03572827688461"}}, "geometry": {"type": "Point", "coordinates": [46.63247102195166, -27.175894646757595]}}, {"type": "Feature", "properties": {"norad_id": 31254, "name": "FENGYUN 1C DEB", "group": "fengyun-1c-debris", "lat": -45.97372105490292, "lon": 35.62053752941181, "alt_km": 760.7516655503241, "timestamp": "2025-12-02T21:34:01.552352+00:00", "meta": {"OBJECT_NAME": "FENGYUN 1C DEB", "OBJECT_ID": "1999-025BML", "EPOCH": "2025-11-27T22:14:27.134880", "MEAN_MOTION": 14.36276197, "ECCENTRICITY": 0.0150752, "INCLINATION": 98.4636, "RA_OF_ASC_NODE": 21.8734, "ARG_OF_PERICENTER": 246.3529, "MEAN_ANOMALY": 292.2282, "EPHEMERIS_TYPE": 0, "CLASSIFICATION_TYPE": "U", "NORAD_CAT_ID": 31254, "ELEMENT_SET_NO": 999, "REV_AT_EPOCH": 97303, "BSTAR": 0.00058845, "MEAN_MOTION_DOT": 1.909e-05, "MEAN_MOTION_DDOT": 0}, "tle": {"line1": "1 31254U 99025BML 25331.92670295  .00001909  00000+0  58845-3 0  9995", "line2": "2 31254  98.4636  21.8734 0150752 246.3529 292.2282 14.36276197973034"}}, "geometry": {"type": "Point", "coordinates": [35.62053752941181, -45.97372105490292]}}, {"type": "Feature", "properties": {"norad_id": 31255, "name": "FENGYUN 1C DEB", "group": "fengyun-1c-debris", "lat": 79.40658619436613, "lon": 34.912521121708785, "alt_km": 827.7069967735979, "timestamp": "2025-12-02T21:34:01.552364+00:00", "meta": {"OBJECT_NAME": "FENGYUN 1C DEB", "OBJECT_ID": "1999-025BMM", "EPOCH": "2025-12-02T10:54:53.872416", "MEAN_MOTION": 14.09706977, "ECCENTRICITY": 0.0271065, "INCLINATION": 99.3087, "RA_OF_ASC_NODE": 153.1744, "ARG_OF_PERICENTER": 12.1458, "MEAN_ANOMALY": 348.6076, "EPHEMERIS_TYPE": 0, "CLASSIFICATION_TYPE": "U", "NORAD_CAT_ID": 31255, "ELEMENT_SET_NO": 999, "REV_AT_EPOCH": 96656, "BSTAR": 0.00030841, "MEAN_MOTION_DOT": 7.1e-06, "MEAN_MOTION_DDOT": 0}, "tle": {"line1": "1 31255U 99025BMM 25336.45479019  .00000710  00000+0  30841-3 0  9995", "line2": "2 31255  99.3087 153.1744 0271065  12.1458 348.6076 14.09706977966567"}}, "geometry": {"type": "Point", "coordinates": [34.912521121708785, 79.40658619436613]}}, {"type": "Feature", "properties": {"norad_id": 31256, "name": "FENGYUN 1C DEB", "group": "fengyun-1c-debris", "lat": -15.249951840233535, "lon": 2.60370438128513, "alt_km": 750.2679440939155, "timestamp": "2025-12-02T21:34:01.552374+00:00", "meta": {"OBJECT_NAME": "FENGYUN 1C DEB", "OBJECT_ID": "1999-025BMN", "EPOCH": "2025-12-02T08:40:56.043264", "MEAN_MOTION": 14.03060296, "ECCENTRICITY": 0.0308488, "INCLINATION": 98.6812, "RA_OF_ASC_NODE": 184.4779, "ARG_OF_PERICENTER": 143.2966, "MEAN_ANOMALY": 218.9768, "EPHEMERIS_TYPE": 0, "CLASSIFICATION_TYPE": "U", "NORAD_CAT_ID": 31256, "ELEMENT_SET_NO": 999, "REV_AT_EPOCH": 64836, "BSTAR": 0.0037601, "MEAN_MOTION_DOT": 8.874e-05, "MEAN_MOTION_DDOT": 0}, "tle": {"line1": "1 31256U 99025BMN 25336.36175976  .00008874  00000+0  37601-2 0  9990", "line2": "2 31256  98.6812 184.4779 0308488 143.2966 218.9768 14.03060296648364"}}, "geometry": {"type": "Point", "coordinates": [2.60370438128513, -15.249951840233535]}}]}